{
  "type": "FeatureCollection",
  "features": [
    {
      "type": "Feature",
      "properties": {
        "norad_id": 28054,
        "name": "DMSP 5D-3 F16 (USA 172)",
        "group": "weather",
        "lat": -45.32176796212073,
        "lon": 11.6524038077571,
        "alt_km": 846.3179902722914,
        "timestamp": "2025-12-10T23:33:12.472909+00:00",
        "meta_object_name": "DMSP 5D-3 F16 (USA 172)",
        "meta_object_id": "2003-048A",
        "meta_epoch": "2025-12-10T14:05:57.577344",
        "meta_mean_motion": 14.14423113,
        "meta_eccentricity": 0.00065739,
        "meta_inclination": 99.0048,
        "meta_ra_of_asc_node": 2.0275,
        "meta_arg_of_pericenter": 327.6256,
        "meta_mean_anomaly": 141.7192,
        "meta_ephemeris_type": 0,
        "meta_classification_type": "U",
        "meta_norad_cat_id": 28054,
        "meta_element_set_no": 999,
        "meta_rev_at_epoch": 14282,
        "meta_bstar": 0.00013723796,
        "meta_mean_motion_dot": 2.17e-06,
        "meta_mean_motion_ddot": 0,
        "tle_line1": "1 28054U 03048A   25344.58747196  .00000217  00000+0  13724-3 0  9998",
        "tle_line2": "2 28054  99.0048   2.0275 0006573 327.6256 141.7192 14.14423113142825"
      },
      "geometry": {
        "type": "Point",
        "coordinates": [
          11.6524038077571,
          -45.32176796212073
        ]
      }
    },
    {
      "type": "Feature",
      "properties": {
        "norad_id": 28912,
        "name": "METEOSAT-9 (MSG-2)",
        "group": "weather",
        "lat": 7.960549715138113,
        "lon": 118.58405560481222,
        "alt_km": 35793.747015728,
        "timestamp": "2025-12-10T23:33:12.472959+00:00",
        "meta_object_name": "METEOSAT-9 (MSG-2)",
        "meta_object_id": "2005-049B",
        "meta_epoch": "2025-12-09T20:38:15.300384",
        "meta_mean_motion": 1.00274858,
        "meta_eccentricity": 0.0003774,
        "meta_inclination": 8.9334,
        "meta_ra_of_asc_node": 56.0037,
        "meta_arg_of_pericenter": 190.0856,
        "meta_mean_anomaly": 187.9557,
        "meta_ephemeris_type": 0,
        "meta_classification_type": "U",
        "meta_norad_cat_id": 28912,
        "meta_element_set_no": 999,
        "meta_rev_at_epoch": 510,
        "meta_bstar": 0,
        "meta_mean_motion_dot": 1.24e-06,
        "meta_mean_motion_ddot": 0,
        "tle_line1": "1 28912U 05049B   25343.85989931  .00000124  00000+0  00000+0 0  9994",
        "tle_line2": "2 28912   8.9334  56.0037 0003774 190.0856 187.9557  1.00274858  5105"
      },
      "geometry": {
        "type": "Point",
        "coordinates": [
          118.58405560481222,
          7.960549715138113
        ]
      }
    },
    {
      "type": "Feature",
      "properties": {
        "norad_id": 29522,
        "name": "DMSP 5D-3 F17 (USA 191)",
        "group": "weather",
        "lat": -69.53041412208763,
        "lon": 146.07119089968697,
        "alt_km": 843.5512561996093,
        "timestamp": "2025-12-10T23:33:12.472975+00:00",
        "meta_object_name": "DMSP 5D-3 F17 (USA 191)",
        "meta_object_id": "2006-050A",
        "meta_epoch": "2025-12-10T13:52:58.474848",
        "meta_mean_motion": 14.14918096,
        "meta_eccentricity": 0.00093144,
        "meta_inclination": 98.7394,
        "meta_ra_of_asc_node": 350.0125,
        "meta_arg_of_pericenter": 231.6233,
        "meta_mean_anomaly": 128.4104,
        "meta_ephemeris_type": 0,
        "meta_classification_type": "U",
        "meta_norad_cat_id": 29522,
        "meta_element_set_no": 999,
        "meta_rev_at_epoch": 98574,
        "meta_bstar": 0.00016569277,
        "meta_mean_motion_dot": 2.77e-06,
        "meta_mean_motion_ddot": 0,
        "tle_line1": "1 29522U 06050A   25344.57845457  .00000277  00000+0  16569-3 0  9999",
        "tle_line2": "2 29522  98.7394 350.0125 0009314 231.6233 128.4104 14.14918096985741"
      },
      "geometry": {
        "type": "Point",
        "coordinates": [
          146.07119089968697,
          -69.53041412208763
        ]
      }
    },
    {
      "type": "Feature",
      "properties": {
        "norad_id": 32958,
        "name": "FENGYUN 3A",
        "group": "weather",
        "lat": -62.471107446967075,
        "lon": -58.43325050311322,
        "alt_km": 828.7322710895205,
        "timestamp": "2025-12-10T23:33:12.472988+00:00",
        "meta_object_name": "FENGYUN 3A",
        "meta_object_id": "2008-026A",
        "meta_epoch": "2025-12-10T13:42:10.579392",
        "meta_mean_motion": 14.19513473,
        "meta_eccentricity": 0.00079911,
        "meta_inclination": 98.6695,
        "meta_ra_of_asc_node": 284.1435,
        "meta_arg_of_pericenter": 317.2846,
        "meta_mean_anomaly": 42.7709,
        "meta_ephemeris_type": 0,
        "meta_classification_type": "U",
        "meta_norad_cat_id": 32958,
        "meta_element_set_no": 999,
        "meta_rev_at_epoch": 90864,
        "meta_bstar": 0.0001207129,
        "meta_mean_motion_dot": 2.11e-06,
        "meta_mean_motion_ddot": 0,
        "tle_line1": "1 32958U 08026A   25344.57095578  .00000211  00000+0  12071-3 0  9994",
        "tle_line2": "2 32958  98.6695 284.1435 0007991 317.2846  42.7709 14.19513473908640"
      },
      "geometry": {
        "type": "Point",
        "coordinates": [
          -58.43325050311322,
          -62.471107446967075
        ]
      }
    },
    {
      "type": "Feature",
      "properties": {
        "norad_id": 35491,
        "name": "GOES 14",
        "group": "weather",
        "lat": -1.0366793072930984,
        "lon": -35.375456458044816,
        "alt_km": 35816.389309197955,
        "timestamp": "2025-12-10T23:33:12.473003+00:00",
        "meta_object_name": "GOES 14",
        "meta_object_id": "2009-033A",
        "meta_epoch": "2025-12-10T13:15:23.933376",
        "meta_mean_motion": 1.00165692,
        "meta_eccentricity": 0.00034764,
        "meta_inclination": 1.1984,
        "meta_ra_of_asc_node": 85.3691,
        "meta_arg_of_pericenter": 330.6865,
        "meta_mean_anomaly": 113.9048,
        "meta_ephemeris_type": 0,
        "meta_classification_type": "U",
        "meta_norad_cat_id": 35491,
        "meta_element_set_no": 999,
        "meta_rev_at_epoch": 470,
        "meta_bstar": 0,
        "meta_mean_motion_dot": -4.7e-07,
        "meta_mean_motion_ddot": 0,
        "tle_line1": "1 35491U 09033A   25344.55236034 -.00000047  00000+0  00000+0 0  9993",
        "tle_line2": "2 35491   1.1984  85.3691 0003476 330.6865 113.9048  1.00165692  4707"
      },
      "geometry": {
        "type": "Point",
        "coordinates": [
          -35.375456458044816,
          -1.0366793072930984
        ]
      }
    },
    {
      "type": "Feature",
      "properties": {
        "norad_id": 35951,
        "name": "DMSP 5D-3 F18 (USA 210)",
        "group": "weather",
        "lat": 58.98921651279227,
        "lon": 156.4714672789345,
        "alt_km": 832.0380643444105,
        "timestamp": "2025-12-10T23:33:12.473016+00:00",
        "meta_object_name": "DMSP 5D-3 F18 (USA 210)",
        "meta_object_id": "2009-057A",
        "meta_epoch": "2025-12-10T14:30:13.367232",
        "meta_mean_motion": 14.14767313,
        "meta_eccentricity": 0.00120861,
        "meta_inclination": 98.8833,
        "meta_ra_of_asc_node": 321.0158,
        "meta_arg_of_pericenter": 68.3272,
        "meta_mean_anomaly": 291.9187,
        "meta_ephemeris_type": 0,
        "meta_classification_type": "U",
        "meta_norad_cat_id": 35951,
        "meta_element_set_no": 999,
        "meta_rev_at_epoch": 83292,
        "meta_bstar": 0.00024592514,
        "meta_mean_motion_dot": 4.3e-06,
        "meta_mean_motion_ddot": 0,
        "tle_line1": "1 35951U 09057A   25344.60432138  .00000430  00000+0  24593-3 0  9991",
        "tle_line2": "2 35951  98.8833 321.0158 0012086  68.3272 291.9187 14.14767313832927"
      },
      "geometry": {
        "type": "Point",
        "coordinates": [
          156.4714672789345,
          58.98921651279227
        ]
      }
    },
    {
      "type": "Feature",
      "properties": {
        "norad_id": 36411,
        "name": "EWS-G2 (GOES 15)",
        "group": "weather",
        "lat": 0.6155394294844753,
        "lon": 134.61171069193423,
        "alt_km": 35801.13741418302,
        "timestamp": "2025-12-10T23:33:12.473029+00:00",
        "meta_object_name": "EWS-G2 (GOES 15)",
        "meta_object_id": "2010-008A",
        "meta_epoch": "2025-12-10T15:08:36.189024",
        "meta_mean_motion": 1.00269223,
        "meta_eccentricity": 0.00058594,
        "meta_inclination": 0.8089,
        "meta_ra_of_asc_node": 86.0537,
        "meta_arg_of_pericenter": 174.1921,
        "meta_mean_anomaly": 107.9328,
        "meta_ephemeris_type": 0,
        "meta_classification_type": "U",
        "meta_norad_cat_id": 36411,
        "meta_element_set_no": 999,
        "meta_rev_at_epoch": 5774,
        "meta_bstar": 0,
        "meta_mean_motion_dot": 4.2e-07,
        "meta_mean_motion_ddot": 0,
        "tle_line1": "1 36411U 10008A   25344.63097441  .00000042  00000+0  00000+0 0  9990",
        "tle_line2": "2 36411   0.8089  86.0537 0005859 174.1921 107.9328  1.00269223 57741"
      },
      "geometry": {
        "type": "Point",
        "coordinates": [
          134.61171069193423,
          0.6155394294844753
        ]
      }
    }
  ]
}